[{"OBJECT_NAME":"OBJECT AL","OBJECT_ID":"2023-085AL","EPOCH":"2026-03-09T22:26:04.970400","MEAN_MOTION":15.31857284,"ECCENTRICITY":0.000802,"INCLINATION":97.4839,"RA_OF_ASC_NODE":180.0127,"ARG_OF_PERICENTER":78.7242,"MEAN_ANOMALY":281.49,"EPHEMERIS_TYPE":0,"CLASSIFICATION_TYPE":"U","NORAD_CAT_ID":57038,"ELEMENT_SET_NO":999,"REV_AT_EPOCH":15154,"BSTAR":0.0006591637,"MEAN_MOTION_DOT":0.00020246,"MEAN_MOTION_DDOT":0},{"OBJECT_NAME":"STARLINK-35313","OBJECT_ID":"2025-216AA","EPOCH":"2026-03-09T22:45:52.807968","MEAN_MOTION":15.30229779,"ECCENTRICITY":4.85e-5,"INCLINATION":53.1588,"RA_OF_ASC_NODE":331.6538,"ARG_OF_PERICENTER":51.3843,"MEAN_ANOMALY":308.7201,"EPHEMERIS_TYPE":0,"CLASSIFICATION_TYPE":"U","NORAD_CAT_ID":65758,"ELEMENT_SET_NO":999,"REV_AT_EPOCH":2654,"BSTAR":0.0012175401,"MEAN_MOTION_DOT":0.00035909,"MEAN_MOTION_DDOT":0}]
